KUIPER-00089            
1 64834U 25151U   25249.65437747  .00048322  00000+0  13364-2 0  9991
2 64834  51.8808  34.9907 0007174 345.2932  14.7845 15.36516833  8048
KUIPER-00090            
1 64835U 25151V   25249.66264701  .00050422  00000+0  14077-2 0  9997
2 64835  51.8799  35.0395 0006896 348.0225  12.0596 15.36205536  8046
KUIPER-00091            
1 64836U 25151W   25249.70763959  .00051867  00000+0  14268-2 0  9998
2 64836  51.8792  34.5918 0006520 328.9771  31.0830 15.36656301  8055
KUIPER-00092            
1 64837U 25151X   25249.12487620  .00072436  00000+0  19827-2 0  9994
2 64837  51.8796  37.4335 0007274 332.7603  27.3001 15.36657635  9172
KUIPER-00093            
1 64838U 25151Y   25249.91668981 -.00353875  00000+0 -13024-1 0  9996
2 64838  51.8836  33.9131 0007486 338.2550 286.9358 15.28830108  1629
KUIPER-00094            
1 64839U 25151Z   25249.70969403  .00051858  00000+0  14187-2 0  9993
2 64839  51.8788  34.6044 0006723 336.9438  23.1246 15.36825927  8053
KUIPER-00081            
1 65132U 25171A   25249.35290403  .00047368  00000+0  13219-2 0  9996
2 65132  51.8763 280.0707 0004527 212.0765 147.9947 15.36258739  5223
KUIPER-00088            
1 65133U 25171B   25249.48363164  .00039408  00000+0  11015-2 0  9994
2 65133  51.8771 279.4492 0004298 211.1603 148.9129 15.36295795  5240
